#aV2007  5 22  0  0   .00000000      96 DD+AD WGS84 FIT  NGA
## 1428 172800.00000000   900.00000000 54242  .0000000000000
+   30     1  2  3  4  5  6  7  8  9 10 11 12 13 14 16 17 18
+         19 20 21 22 23 24 25 26 27 28 29 30 31  0  0  0  0
+          0  0  0  0  0  0  0  0  0  0  0  0  0  0  0  0  0
+          0  0  0  0  0  0  0  0  0  0  0  0  0  0  0  0  0
+          0  0  0  0  0  0  0  0  0  0  0  0  0  0  0  0  0
++         0  0  0  0  0  0  0  0  0  0  0  0  0  0  0  0  0
++         0  0  0  0  0  0  0  0  0  0  0  0  0  0  0  0  0
++         0  0  0  0  0  0  0  0  0  0  0  0  0  0  0  0  0
++         0  0  0  0  0  0  0  0  0  0  0  0  0  0  0  0  0
++         0  0  0  0  0  0  0  0  0  0  0  0  0  0  0  0  0
%c cc cc ccc ccc cccc cccc cccc cccc ccccc ccccc ccccc ccccc
%c cc cc ccc ccc cccc cccc cccc cccc ccccc ccccc ccccc ccccc
%f  0.0000000  0.000000000  0.00000000000  0.000000000000000
%f  0.0000000  0.000000000  0.00000000000  0.000000000000000
%i    0    0    0    0      0      0      0      0         0
%i    0    0    0    0      0      0      0      0         0
/*      NGA, ST. LOUIS,MO.                                  
/*   EPHEMERIS COMPUTED FROM  3 DAYS OF DATA                
/* CCCCCCCCCCCCCCCCCCCCCCCCCCCCCCCCCCCCCCCCCCCCCCCCCCCCCCCCC
/* CCCCCCCCCCCCCCCCCCCCCCCCCCCCCCCCCCCCCCCCCCCCCCCCCCCCCCCCC
*  2007  5 22 13 30   .00000000                                                 
P  1 -14007.172294  19958.566710 -10241.373654    129.489072                    
V  1   2674.617062 -13143.496333 -28754.135629       .028886                    
P  2  19610.690436 -13371.265252  11405.893131    108.454830                    
V  2  15232.564541   -681.480335 -26775.720373       .028805                    
P  3 -10400.840695  22832.302435   7978.867573     61.111927                    
V  3  -1931.337886 -11106.024013  28857.916124       .055846                    
P  4  25864.952467  -6759.431708   1103.010382     10.822571                    
V  4   2097.295941   2563.972813 -31153.358634      -.002609                    
P  5 -13276.033325 -21077.549748  -9672.541720     -6.174010                    
V  5  10908.206608   5669.553889 -27857.685951      -.165096                    
P  6  -9295.702457 -17430.508026  17927.114746    191.222846                    
V  6   7439.127196 -21318.565174 -17096.464008       .128893                    
P  7 -11920.500782 -13580.217228  19794.180255    291.814582                    
V  7   6754.593608 -23592.962631 -12402.785500      -.174215                    
P  8  25200.509884   1156.369014   8878.676556   -108.128397                    
V  8 -10738.025190   3888.202236  29161.234169      -.011987                    
P  9    649.469076 -15880.955918 -21846.741521     71.408601                    
V  9  25496.541010  -6716.692449   6021.793679       .016497                    
P 10   8343.346452 -12827.261344  21559.506371    102.240948                    
V 10  19028.745454  20091.557938   4876.304676       .005170                    
P 11   2662.815728  16777.535495 -20491.704034     16.546047                    
V 11 -24345.009948   9530.572563   4958.740084       .008669                    
P 12  -9032.493428 -21743.568920 -12240.093444    -45.258166                    
V 12  12532.771786   9721.506216 -26224.166315      -.006448                    
P 13   8417.534147  15482.118728  19780.839400    174.667165                    
V 13  -8694.233237  23720.321414 -14746.971546       .034559                    
P 14 -15819.682666   4987.803757 -20641.745193     21.320511                    
V 14   7185.310873 -25356.263069 -11662.469770       .017793                    
P 16 -13253.201096   7915.642307  21711.397010    149.793620                    
V 16 -18438.710679 -20190.884992  -3761.135293       .029534                    
P 17  16003.292538  -2000.294967 -21065.139814     67.318035                    
V 17  -6944.544922  25909.483846  -7857.620216      -.013975                    
P 18 -20130.500430 -16549.566728  -5851.245968   -249.302074                    
V 18  -2967.565539  -7439.343656  30199.859951       .008846                    
P 19  -7460.157974  25310.404948  -2325.684285     36.193703                    
V 19  -3888.520446   1870.934384  31573.456893       .033612                    
P 20   9788.140811  21835.872357 -11676.334754    -24.847659                    
V 20 -12081.485536  -8687.859144 -26585.397854      -.003761                    
P 21 -20699.896672  -7212.571910  15506.833834     77.144792                    
V 21  18477.892264  -5956.902331  21485.133389       .004388                    
P 22 -20404.564489  -6544.475196 -15562.325829    183.197050                    
V 22 -11488.327177 -16577.843752  21790.507280       .018232                    
P 23   2186.789207  23144.926859  12570.103786    168.162065                    
V 23  -6673.621045  14880.533787 -26260.498338       .026962                    
P 24  -7966.812845 -13841.372440  21386.842082      1.845163                    
V 24  26137.997432  -5687.951265   6400.884124       .027311                    
P 25   7733.406506  13551.665081  21889.748064    268.722499                    
V 25 -25259.366472   9147.744906   3485.742310       .254007                    
P 26   8211.468597 -24921.568891    -51.145553   -207.976354                    
V 26   2032.251055   1169.334971  32833.212044      -.208247                    
P 27  19817.566656   6394.564825  17266.724242    112.185164                    
V 27 -19260.947444   7422.411275  19886.496815       .022076                    
P 28  21112.255520  10239.245221 -12433.766761       .600006                    
V 28   9339.669278  13406.404253  25852.145078      -.007903                    
P 29  10611.524959 -23549.897958   5459.692219      2.977418                    
V 29    174.606386   7051.321059  31611.006065       .003870                    
P 30 -17159.245310 -20109.625085  -3455.874544     34.510639                    
V 30   5054.344088    548.643218 -30944.320504       .010276                    
P 31 -25300.397695   7944.036553   2293.542216     19.240620                    
V 31  -3232.935025  -1949.287746 -31573.166954      -.005705                    
EOF
